{
  "norad_id": 58234,
  "name": "STARLINK-30860",
  "history": [
    {
      "epoch": "2026-03-28T14:44:10.521888",
      "apogee_km": 484.7733972002843,
      "perigee_km": 483.4791743445876,
      "latitude_deg": -26.693067898536505,
      "longitude_deg": 62.34502431983128,
      "semi_major_axis_km": 6862.263285772436,
      "eccentricity": 9.43e-05,
      "inclination_deg": 43.0017,
      "raan_deg": 177.9407,
      "arg_perigee_deg": 255.8181,
      "mean_anomaly_deg": 104.2566,
      "mean_motion_rev_day": 15.27220331
    }
  ]
}